[{"OBJECT_NAME":"YAOGAN-36 04C","OBJECT_ID":"2022-171E","EPOCH":"2026-03-09T18:55:44.889600","MEAN_MOTION":15.29852307,"ECCENTRICITY":0.00066848,"INCLINATION":34.9797,"RA_OF_ASC_NODE":96.6578,"ARG_OF_PERICENTER":275.3761,"MEAN_ANOMALY":84.6192,"EPHEMERIS_TYPE":0,"CLASSIFICATION_TYPE":"U","NORAD_CAT_ID":54750,"ELEMENT_SET_NO":999,"REV_AT_EPOCH":18024,"BSTAR":0.00054591902,"MEAN_MOTION_DOT":0.00016196,"MEAN_MOTION_DDOT":0},{"OBJECT_NAME":"STARLINK-35720","OBJECT_ID":"2025-294Y","EPOCH":"2026-03-09T21:46:41.755008","MEAN_MOTION":15.27587029,"ECCENTRICITY":0.00014529,"INCLINATION":43.0044,"RA_OF_ASC_NODE":36.7413,"ARG_OF_PERICENTER":247.9549,"MEAN_ANOMALY":112.1149,"EPHEMERIS_TYPE":0,"CLASSIFICATION_TYPE":"U","NORAD_CAT_ID":67052,"ELEMENT_SET_NO":999,"REV_AT_EPOCH":1483,"BSTAR":0.0011897905,"MEAN_MOTION_DOT":0.0003263,"MEAN_MOTION_DDOT":0}]
